{
  "type": "FeatureCollection",
  "features": [
    {
      "type": "Feature",
      "properties": {
        "norad_id": 31485,
        "name": "FENGYUN 1C DEB",
        "group": "fengyun-1c-debris",
        "lat": -19.591717867163567,
        "lon": -169.57823581534055,
        "alt_km": 856.9682575640381,
        "timestamp": "2025-12-22T04:03:39.452126+00:00",
        "meta_object_name": "FENGYUN 1C DEB",
        "meta_object_id": "1999-025BVZ",
        "meta_epoch": "2025-12-18T17:44:13.555392",
        "meta_mean_motion": 13.40072022,
        "meta_eccentricity": 0.04462178,
        "meta_inclination": 102.7177,
        "meta_ra_of_asc_node": 181.5069,
        "meta_arg_of_pericenter": 305.9941,
        "meta_mean_anomaly": 50.0576,
        "meta_ephemeris_type": 0,
        "meta_classification_type": "U",
        "meta_norad_cat_id": 31485,
        "meta_element_set_no": 999,
        "meta_rev_at_epoch": 90525,
        "meta_bstar": 0.0021234273,
        "meta_mean_motion_dot": 2.008e-05,
        "meta_mean_motion_ddot": 0,
        "tle_line1": "1 31485U 99025BVZ 25352.73904578  .00002008  00000+0  21234-2 0  9999",
        "tle_line2": "2 31485 102.7177 181.5069 0446217 305.9941  50.0576 13.40072022905258"
      },
      "geometry": {
        "type": "Point",
        "coordinates": [
          -169.57823581534055,
          -19.591717867163567
        ]
      }
    },
    {
      "type": "Feature",
      "properties": {
        "norad_id": 31487,
        "name": "FENGYUN 1C DEB",
        "group": "fengyun-1c-debris",
        "lat": -66.92974907821225,
        "lon": -43.227879301369946,
        "alt_km": 835.2094825857503,
        "timestamp": "2025-12-22T04:03:39.452136+00:00",
        "meta_object_name": "FENGYUN 1C DEB",
        "meta_object_id": "1999-025BWB",
        "meta_epoch": "2025-12-21T18:20:46.092768",
        "meta_mean_motion": 13.97768401,
        "meta_eccentricity": 0.0120572,
        "meta_inclination": 102.4137,
        "meta_ra_of_asc_node": 167.366,
        "meta_arg_of_pericenter": 284.9971,
        "meta_mean_anomaly": 90.2387,
        "meta_ephemeris_type": 0,
        "meta_classification_type": "U",
        "meta_norad_cat_id": 31487,
        "meta_element_set_no": 999,
        "meta_rev_at_epoch": 94538,
        "meta_bstar": 0.0013808,
        "meta_mean_motion_dot": 2.004e-05,
        "meta_mean_motion_ddot": 0,
        "tle_line1": "1 31487U 99025BWB 25355.76442237  .00002004  00000+0  13808-2 0  9990",
        "tle_line2": "2 31487 102.4137 167.3660 0120572 284.9971  90.2387 13.97768401945383"
      },
      "geometry": {
        "type": "Point",
        "coordinates": [
          -43.227879301369946,
          -66.92974907821225
        ]
      }
    },
    {
      "type": "Feature",
      "properties": {
        "norad_id": 31491,
        "name": "FENGYUN 1C DEB",
        "group": "fengyun-1c-debris",
        "lat": 30.79346915292492,
        "lon": -100.39655779519613,
        "alt_km": 864.3258567211788,
        "timestamp": "2025-12-22T04:03:39.452146+00:00",
        "meta_object_name": "FENGYUN 1C DEB",
        "meta_object_id": "1999-025BWE",
        "meta_epoch": "2025-12-18T05:01:58.636416",
        "meta_mean_motion": 14.1729953,
        "meta_eccentricity": 0.00511133,
        "meta_inclination": 99.3072,
        "meta_ra_of_asc_node": 261.0688,
        "meta_arg_of_pericenter": 253.212,
        "meta_mean_anomaly": 106.3442,
        "meta_ephemeris_type": 0,
        "meta_classification_type": "U",
        "meta_norad_cat_id": 31491,
        "meta_element_set_no": 999,
        "meta_rev_at_epoch": 63805,
        "meta_bstar": 0.0014383052,
        "meta_mean_motion_dot": 2.896e-05,
        "meta_mean_motion_ddot": 0,
        "tle_line1": "1 31491U 99025BWE 25352.20970644  .00002896  00000+0  14383-2 0  9997",
        "tle_line2": "2 31491  99.3072 261.0688 0051113 253.2120 106.3442 14.17299530638050"
      },
      "geometry": {
        "type": "Point",
        "coordinates": [
          -100.39655779519613,
          30.79346915292492
        ]
      }
    },
    {
      "type": "Feature",
      "properties": {
        "norad_id": 31492,
        "name": "FENGYUN 1C DEB",
        "group": "fengyun-1c-debris",
        "lat": -58.186195927120515,
        "lon": 177.5601192935385,
        "alt_km": 629.3008753082386,
        "timestamp": "2025-12-22T04:03:39.452156+00:00",
        "meta_object_name": "FENGYUN 1C DEB",
        "meta_object_id": "1999-025BWF",
        "meta_epoch": "2025-12-17T10:03:11.000448",
        "meta_mean_motion": 14.70935194,
        "meta_eccentricity": 0.00645141,
        "meta_inclination": 98.8575,
        "meta_ra_of_asc_node": 157.8403,
        "meta_arg_of_pericenter": 354.4182,
        "meta_mean_anomaly": 5.6296,
        "meta_ephemeris_type": 0,
        "meta_classification_type": "U",
        "meta_norad_cat_id": 31492,
        "meta_element_set_no": 999,
        "meta_rev_at_epoch": 96575,
        "meta_bstar": 0.0023655093,
        "meta_mean_motion_dot": 0.00014935,
        "meta_mean_motion_ddot": 0,
        "tle_line1": "1 31492U 99025BWF 25351.41887732  .00014935  00000+0  23655-2 0  9994",
        "tle_line2": "2 31492  98.8575 157.8403 0064514 354.4182   5.6296 14.70935194965751"
      },
      "geometry": {
        "type": "Point",
        "coordinates": [
          177.5601192935385,
          -58.186195927120515
        ]
      }
    },
    {
      "type": "Feature",
      "properties": {
        "norad_id": 31493,
        "name": "FENGYUN 1C DEB",
        "group": "fengyun-1c-debris",
        "lat": 46.12512465066024,
        "lon": 133.67262028048629,
        "alt_km": 832.4640799180306,
        "timestamp": "2025-12-22T04:03:39.452168+00:00",
        "meta_object_name": "FENGYUN 1C DEB",
        "meta_object_id": "1999-025BWG",
        "meta_epoch": "2025-12-21T03:17:34.295136",
        "meta_mean_motion": 13.92984484,
        "meta_eccentricity": 0.01172359,
        "meta_inclination": 100.1363,
        "meta_ra_of_asc_node": 301.8208,
        "meta_arg_of_pericenter": 153.2709,
        "meta_mean_anomaly": 207.4555,
        "meta_ephemeris_type": 0,
        "meta_classification_type": "U",
        "meta_norad_cat_id": 31493,
        "meta_element_set_no": 999,
        "meta_rev_at_epoch": 59983,
        "meta_bstar": 0.00067667024,
        "meta_mean_motion_dot": 8.79e-06,
        "meta_mean_motion_ddot": 0,
        "tle_line1": "1 31493U 99025BWG 25355.13720249  .00000879  00000+0  67667-3 0  9991",
        "tle_line2": "2 31493 100.1363 301.8208 0117235 153.2709 207.4555 13.92984484599838"
      },
      "geometry": {
        "type": "Point",
        "coordinates": [
          133.67262028048629,
          46.12512465066024
        ]
      }
    },
    {
      "type": "Feature",
      "properties": {
        "norad_id": 31495,
        "name": "FENGYUN 1C DEB",
        "group": "fengyun-1c-debris",
        "lat": 68.4562035773965,
        "lon": 73.78922606368967,
        "alt_km": 773.4454321689454,
        "timestamp": "2025-12-22T04:03:39.452178+00:00",
        "meta_object_name": "FENGYUN 1C DEB",
        "meta_object_id": "1999-025BWJ",
        "meta_epoch": "2025-12-20T09:32:47.149152",
        "meta_mean_motion": 14.29252624,
        "meta_eccentricity": 0.00255899,
        "meta_inclination": 99.12,
        "meta_ra_of_asc_node": 227.9275,
        "meta_arg_of_pericenter": 154.7696,
        "meta_mean_anomaly": 205.474,
        "meta_ephemeris_type": 0,
        "meta_classification_type": "U",
        "meta_norad_cat_id": 31495,
        "meta_element_set_no": 999,
        "meta_rev_at_epoch": 63500,
        "meta_bstar": 0.00086082116,
        "meta_mean_motion_dot": 2.149e-05,
        "meta_mean_motion_ddot": 0,
        "tle_line1": "1 31495U 99025BWJ 25354.39776793  .00002149  00000+0  86082-3 0  9999",
        "tle_line2": "2 31495  99.1200 227.9275 0025589 154.7696 205.4740 14.29252624635009"
      },
      "geometry": {
        "type": "Point",
        "coordinates": [
          73.78922606368967,
          68.4562035773965
        ]
      }
    },
    {
      "type": "Feature",
      "properties": {
        "norad_id": 31497,
        "name": "FENGYUN 1C DEB",
        "group": "fengyun-1c-debris",
        "lat": -59.79450256515062,
        "lon": 144.85956299163502,
        "alt_km": 733.2908178682355,
        "timestamp": "2025-12-22T04:03:39.452188+00:00",
        "meta_object_name": "FENGYUN 1C DEB",
        "meta_object_id": "1999-025BWL",
        "meta_epoch": "2025-12-20T04:29:02.353920",
        "meta_mean_motion": 14.39239205,
        "meta_eccentricity": 0.01673435,
        "meta_inclination": 98.371,
        "meta_ra_of_asc_node": 337.5747,
        "meta_arg_of_pericenter": 320.7302,
        "meta_mean_anomaly": 96.6636,
        "meta_ephemeris_type": 0,
        "meta_classification_type": "U",
        "meta_norad_cat_id": 31497,
        "meta_element_set_no": 999,
        "meta_rev_at_epoch": 97662,
        "meta_bstar": 0.00018663983,
        "meta_mean_motion_dot": 6.31e-06,
        "meta_mean_motion_ddot": 0,
        "tle_line1": "1 31497U 99025BWL 25354.18683280  .00000631  00000+0  18664-3 0  9991",
        "tle_line2": "2 31497  98.3710 337.5747 0167343 320.7302  96.6636 14.39239205976625"
      },
      "geometry": {
        "type": "Point",
        "coordinates": [
          144.85956299163502,
          -59.79450256515062
        ]
      }
    }
  ]
}